#aV2020  3 12  0  0  0.00000000     288 DD+AD WGS84 FIT  NGA
## 2096 345600.00000000   300.00000000 58920 0.0000000000000
+   31     1  2  3  4  5  6  7  8  9 10 11 12 13 14 15 16 17
+         19 20 21 22 23 24 25 26 27 28 29 30 31 32  0  0  0
+          0  0  0  0  0  0  0  0  0  0  0  0  0  0  0  0  0
+          0  0  0  0  0  0  0  0  0  0  0  0  0  0  0  0  0
+          0  0  0  0  0  0  0  0  0  0  0  0  0  0  0  0  0
++         2  2  2  2  2  2  2  2  2  2  2  2  2  2  2  2  2
++         2  2  2  2  2  2  2  2  2  2  2  2  2  2  0  0  0
++         0  0  0  0  0  0  0  0  0  0  0  0  0  0  0  0  0
++         0  0  0  0  0  0  0  0  0  0  0  0  0  0  0  0  0
++         0  0  0  0  0  0  0  0  0  0  0  0  0  0  0  0  0
%c cc cc ccc ccc cccc cccc cccc cccc ccccc ccccc ccccc ccccc
%c cc cc ccc ccc cccc cccc cccc cccc ccccc ccccc ccccc ccccc
%f  0.0000000  0.000000000  0.00000000000  0.000000000000000
%f  0.0000000  0.000000000  0.00000000000  0.000000000000000
%i    0    0    0    0      0      0      0      0         0
%i    0    0    0    0      0      0      0      0         0
/*      NGA, ST. LOUIS,MO.                                  
/*   EPHEMERIS COMPUTED FROM 2 DAYS OF DATA                 
/*   EPOCHA v5 SMOOTHER                                     
/*   G1762 IERS2010 SATAF SATAPC                            
*  2020  3 12  2 45  0.00000000
P  1  21901.807392  15032.730733  -3281.579493   -322.945804                    
V  1  -4307.574755   -244.632191 -31578.692650     -0.124140                    
P  2  -3913.360647 -17576.610859  20190.815605   -420.294526                    
V  2  22320.463469   9487.312055  12931.827932     -0.067290                    
P  3  12873.780644  14214.299898  18360.085351   -115.653823                    
V  3  -1157.557144  23397.416546 -17153.455130     -0.097360                    
P  4  18099.993346   5037.076444  18793.566390    -60.997722                    
V  4 -20197.161563  12738.574777  16019.525938     -0.053122                    
P  5  -2231.383715 -26317.667930  -1587.152457     -8.971038                    
V  5   3181.630900  -2004.306540  31598.690937     -0.006151                    
P  6   8235.311491 -12397.344709  22056.212648   -228.904483                    
V  6  24235.473419  13647.304594  -1340.817673     -0.086278                    
P  7  23335.725742   3292.774770 -12417.754191   -233.751106                    
V  7  12795.136614   9972.887286  25603.336464     -0.085196                    
P  8   8203.457548  12560.934703 -21894.479282    -26.780173                    
V  8 -23755.735527  14492.817225   -340.618145     -0.012804                    
P  9  23441.192985  -4817.780505  11489.795044   -174.575405                    
V  9 -11149.234346   9894.597594  26753.324580     -0.081946                    
P 10 -11740.063453  16193.975137 -17273.309534   -274.325512                    
V 10  -2106.955543 -22149.356372 -19466.914413     -0.126181                    
P 11  16157.206459  13548.960559 -16469.982564   -336.581621                    
V 11 -20406.138117   1789.307697 -19425.437845      0.108040                    
P 12 -10444.477882 -17372.261748  17022.278234    141.709343                    
V 12   2657.687125 -21837.934112 -20213.934262     -0.042350                    
P 13    946.675710 -16231.971752 -21106.976719     -6.453832                    
V 13  24617.337795  -9876.119809   8831.535862      0.028765                    
P 14 -14476.457958  17719.931868  13661.075358    -26.903945                    
V 14 -16128.984881   5412.288578 -24905.836711      0.024747                    
P 15 -10613.036517 -12098.153616 -21448.855173   -245.601575                    
V 15  21397.645355 -15866.559616  -1279.044181      0.026377                    
P 16   -342.628224  26209.741706  -2500.917845   -134.029567                    
V 16  -2806.028704   2743.694642  32254.546984     -0.042559                    
P 17  21447.458342 -14918.445955   5053.062813    230.561398                    
V 17   6132.561497   -929.873039 -31455.856835      0.063430                    
P 19  17198.605262 -16427.052582  11528.985127   -186.998821                    
V 19  14467.115614  -4605.167456 -27444.216718      0.051395                    
P 20 -15238.610925   4820.348635 -21280.616641    527.873125                    
V 20  -4277.966594 -26619.296276  -3188.132724      0.000000                    
P 21 -22671.414491   -736.419093 -12807.063947    -29.052504                    
V 21 -14697.574400 -10246.071561  25337.803254      0.052131                    
P 22  11083.108982  21069.067071  12122.241496   -785.429416                    
V 22  -1540.059443  15292.739204 -25518.806739     -0.001081                    
P 23  19126.733504   3881.418149  18541.887135   -130.336227                    
V 23 -18503.918615  13273.325957  16261.439196      0.026917                    
P 24 -21577.063370 -14930.349248  -5423.288609    -10.223395                    
V 24   7301.344825     70.806602 -29975.081013     -0.005225                    
P 25 -14756.809178  -5061.639708  21295.415991     -9.472291                    
V 25    153.906765 -27540.181234  -6103.087597      0.018610                    
P 26  -4857.523614  24644.647296   8242.413666    165.763836                    
V 26  -3641.353877 -10444.613201  29190.265538      0.075763                    
P 27  -3430.813928  17475.971566 -19717.671686   -235.926765                    
V 27 -21921.754676  11700.698963  14602.959672     -0.107938                    
P 28  12027.889087 -17232.071072 -15740.679701    733.504716                    
V 28    -47.435174  21050.447690 -22124.300613     -0.026046                    
P 29 -23041.008947   1953.314435  13045.188841    -54.326316                    
V 29  14065.514327  -8918.447988  26088.756601     -0.092646                    
P 30  16816.659557  -6502.342116 -19534.918916   -173.325685                    
V 30  20549.127463  14106.035215  12771.297953     -0.087431                    
P 31  -6237.257320  13996.885994  21631.651377    -28.843474                    
V 31 -23902.244165 -13805.536028   2489.688130     -0.024194                    
P 32 -20272.962688  16320.000888   4978.697842    234.000650                    
V 32  -6892.791547    693.890270 -30923.112375      0.092227                    
EOF
